STARLINK-3969           
1 52551U 22051U   26194.58334491  .00040180  00000+0  17754-2 0  9995
2 52551  53.1600 283.2122 0001985  75.5808 116.5238 15.21357281  5692
STARLINK-3966           
1 52552U 22051V   26194.58334491  .00010810  00000+0  38642-3 0  9993
2 52552  53.1587 282.5906 0001052  83.9281 165.4653 15.29352763  5694
STARLINK-3770           
1 52554U 22051X   26194.49767976  .00000398  00000+0  43085-4 0  9991
2 52554  53.1615 289.0962 0000776  93.0436 267.0644 15.08835926230365
STARLINK-3943           
1 52557U 22051AA  26194.58334491  .00043038  00000+0  21432-2 0  9994
2 52557  53.1603 283.4584 0001239 148.6219  35.3186 15.17188432  5757
STARLINK-3953           
1 52559U 22051AC  26194.45308150  .00000532  00000+0  51484-4 0  9999
2 52559  53.1588 274.4735 0000990  94.5568 265.5537 15.08835197230561
STARLINK-3956           
1 52560U 22051AD  26194.50457772  .00000466  00000+0  47378-4 0  9995
2 52560  53.1588 274.0616 0001141  84.8314 275.2808 15.08834205230576
STARLINK-3955           
1 52561U 22051AE  26194.58334491  .00040358  00000+0  15849-2 0  9996
2 52561  53.1611 287.7045 0001157  74.9935 249.2299 15.25339860  5747
STARLINK-3957           
1 52562U 22051AF  26194.53723261 -.00000938  00000+0 -16640-4 0  9993
2 52562  53.1607 270.1346 0000810  69.1698 290.9391 15.34382490230631
STARLINK-3942           
1 52563U 22051AG  26194.58334491  .00040240  00000+0  17806-2 0  9993
2 52563  53.1610 287.7777 0000327 324.8345 302.6252 15.21307607  5743
STARLINK-3959           
1 52564U 22051AH  26194.55016001 -.00000317  00000+0 -18363-5 0  9990
2 52564  53.1592 288.8650 0000770  77.0717 283.0360 15.08830940230374
STARLINK-3911           
1 52565U 22051AJ  26194.43466652 -.00000750  00000+0 -29033-4 0  9995
2 52565  53.1596 274.3796 0000957  81.7171 278.3929 15.08830217230569
STARLINK-3938           
1 52566U 22051AK  26194.58334491  .00038118  00000+0  18085-2 0  9997
2 52566  53.1596 287.9634 0001751  72.1725 260.4487 15.18931071  5699
STARLINK-3929           
1 52567U 22051AL  26194.58334491  .00068657  00000+0  19683-2 0  9994
2 52567  53.1599 270.1493 0000881  86.5322  73.8177 15.35287576  5656
STARLINK-3930           
1 52568U 22051AM  26194.53515359  .00000220  00000+0  17663-4 0  9994
2 52568  53.1592 270.2790 0001213  58.7803 301.3319 15.34386077230636
STARLINK-3927           
1 52569U 22051AN  26194.44635787  .00000927  00000+0  41645-4 0  9994
2 52569  53.1599 271.7693 0001533  91.8339 268.2838 15.31704387230608
STARLINK-3901           
1 52574U 22051AQ  26194.53128508  .00000865  00000+0  35697-4 0  9999
2 52574  53.1600 270.2163 0001187  51.0304 309.0805 15.35397959230636
STARLINK-3932           
1 52576U 22051AS  26194.53498918  .00001327  00000+0  10151-3 0  9997
2 52576  53.1591 273.9237 0000966  87.0881 273.0221 15.08822673230584
STARLINK-3836           
1 52577U 22051AT  26194.48583025  .00000536  00000+0  27017-4 0  9997
2 52577  53.1612 285.9881 0001572  78.6640 281.4539 15.34390017230418
STARLINK-3833           
1 52578U 22051AU  26194.58334491  .00037347  00000+0  10792-2 0  9990
2 52578  53.1597 286.3383 0001569  62.6388  45.4667 15.35313564  5740
STARLINK-3893           
1 52579U 22051AV  26194.58334491  .00552860  00000+0  66022-2 0  9990
2 52579  53.2170 278.8984 0000932  80.0320  51.3108 15.58644633  5885
STARLINK-3919           
1 52580U 22051AW  26194.58328048  .00000408  00000+0  43721-4 0  9992
2 52580  53.1601 288.7202 0001191  88.7412 271.3716 15.08836568230382
STARLINK-3915           
1 52581U 22051AX  26194.53034404  .00000401  00000+0  43261-4 0  9990
2 52581  53.1586 273.9454 0001075  70.3916 289.7191 15.08832256230589
STARLINK-3895           
1 52583U 22051AZ  26194.46042360  .00000450  00000+0  46365-4 0  9996
2 52583  53.1590 274.2611 0000854  80.4020 279.7068 15.08831027230573
STARLINK-3922           
1 52584U 22051BA  26194.53402267  .00000720  00000+0  63341-4 0  9994
2 52584  53.1595 273.9276 0001052  68.6859 291.4245 15.08834644230588
STARLINK-3906           
1 52585U 22051BB  26194.44937439  .00000064  00000+0  22103-4 0  9991
2 52585  53.1590 274.2688 0001237  99.1481 260.9650 15.08835635230571
STARLINK-3910           
1 52586U 22051BC  26194.52298358  .00000186  00000+0  29771-4 0  9994
2 52586  53.1600 273.9796 0000952  94.3466 265.7635 15.08829903230581
STARLINK-3867           
1 52587U 22051BD  26194.49756481  .00000882  00000+0  40169-4 0  9994
2 52587  53.1599 271.1076 0001048  73.3459 286.7658 15.31708236230620
STARLINK-3917           
1 52588U 22051BE  26194.51194136 -.00000230  00000+0  36523-5 0  9999
2 52588  53.1592 274.0306 0001313  86.5395 273.5747 15.08833655230588
STARLINK-4019           
1 52598U 22052A   26194.58334491  .00073958  00000+0  33260-2 0  9996
2 52598  53.1597  77.8721 0001664 112.9752 141.3443 15.20468998  5846
STARLINK-4024           
1 52599U 22052B   26193.93982908  .00000365  00000+0  23503-4 0  9990
2 52599  53.1605  73.1925 0000980  88.4471 271.6642 15.31705900230619
