OBJECT_NAME,OBJECT_ID,EPOCH,MEAN_MOTION,ECCENTRICITY,INCLINATION,RA_OF_ASC_NODE,ARG_OF_PERICENTER,MEAN_ANOMALY,EPHEMERIS_TYPE,CLASSIFICATION_TYPE,NORAD_CAT_ID,ELEMENT_SET_NO,REV_AT_EPOCH,BSTAR,MEAN_MOTION_DOT,MEAN_MOTION_DDOT
STARLINK-3969,2022-051U,2026-07-13T14:00:01.000224,15.21357281,.00019859,53.1600,283.2122,75.5808,116.5238,0,U,52551,999,569,.17753853E-2,.4018E-3,0
STARLINK-3966,2022-051V,2026-07-13T14:00:01.000224,15.29352763,.00010523,53.1587,282.5906,83.9281,165.4653,0,U,52552,999,569,.38641968E-3,.1081E-3,0
STARLINK-3770,2022-051X,2026-07-13T11:56:39.531264,15.08835926,.00007767,53.1615,289.0962,93.0436,267.0644,0,U,52554,999,23036,.43085488E-4,.398E-5,0
STARLINK-3943,2022-051AA,2026-07-13T14:00:01.000224,15.17188432,.00012399,53.1603,283.4584,148.6219,35.3186,0,U,52557,999,575,.21432108E-2,.43038E-3,0
STARLINK-3953,2022-051AC,2026-07-13T10:52:26.241600,15.08835197,.00009902,53.1588,274.4735,94.5568,265.5537,0,U,52559,999,23056,.51483529E-4,.532E-5,0
STARLINK-3956,2022-051AD,2026-07-13T12:06:35.515008,15.08834205,.00011412,53.1588,274.0616,84.8314,275.2808,0,U,52560,999,23057,.47377862E-4,.466E-5,0
STARLINK-3955,2022-051AE,2026-07-13T14:00:01.000224,15.25339860,.00011572,53.1611,287.7045,74.9935,249.2299,0,U,52561,999,574,.15849307E-2,.40358E-3,0
STARLINK-3957,2022-051AF,2026-07-13T12:53:36.897504,15.34382490,.00008109,53.1607,270.1346,69.1698,290.9391,0,U,52562,999,23063,-.16640429E-4,-.938E-5,0
STARLINK-3942,2022-051AG,2026-07-13T14:00:01.000224,15.21307607,.00003277,53.1610,287.7777,324.8345,302.6252,0,U,52563,999,574,.17806076E-2,.4024E-3,0
STARLINK-3959,2022-051AH,2026-07-13T13:12:13.824864,15.08830940,.00007701,53.1592,288.8650,77.0717,283.0360,0,U,52564,999,23037,-.1836325E-5,-.317E-5,0
STARLINK-3911,2022-051AJ,2026-07-13T10:25:55.187328,15.08830217,.00009574,53.1596,274.3796,81.7171,278.3929,0,U,52565,999,23056,-.29032801E-4,-.75E-5,0
STARLINK-3938,2022-051AK,2026-07-13T14:00:01.000224,15.18931071,.00017512,53.1596,287.9634,72.1725,260.4487,0,U,52566,999,569,.18085415E-2,.38118E-3,0
STARLINK-3929,2022-051AL,2026-07-13T14:00:01.000224,15.35287576,.00008811,53.1599,270.1493,86.5322,73.8177,0,U,52567,999,565,.1968308E-2,.68657E-3,0
STARLINK-3930,2022-051AM,2026-07-13T12:50:37.270176,15.34386077,.00012131,53.1592,270.2790,58.7803,301.3319,0,U,52568,999,23063,.17663325E-4,.22E-5,0
STARLINK-3927,2022-051AN,2026-07-13T10:42:45.319968,15.31704387,.00015339,53.1599,271.7693,91.8339,268.2838,0,U,52569,999,23060,.41644644E-4,.927E-5,0
STARLINK-3901,2022-051AQ,2026-07-13T12:45:03.030912,15.35397959,.0001187,53.1600,270.2163,51.0304,309.0805,0,U,52574,999,23063,.35696618E-4,.865E-5,0
STARLINK-3932,2022-051AS,2026-07-13T12:50:23.065152,15.08822673,.00009669,53.1591,273.9237,87.0881,273.0221,0,U,52576,999,23058,.10150502E-3,.1327E-4,0
STARLINK-3836,2022-051AT,2026-07-13T11:39:35.733600,15.34390017,.0001572,53.1612,285.9881,78.6640,281.4539,0,U,52577,999,23041,.27017004E-4,.536E-5,0
STARLINK-3833,2022-051AU,2026-07-13T14:00:01.000224,15.35313564,.00015697,53.1597,286.3383,62.6388,45.4667,0,U,52578,999,574,.10792081E-2,.37347E-3,0
STARLINK-3893,2022-051AV,2026-07-13T14:00:01.000224,15.58644633,.00009321,53.2170,278.8984,80.0320,51.3108,0,U,52579,999,588,.66022288E-2,.55286E-2,0
STARLINK-3919,2022-051AW,2026-07-13T13:59:55.433472,15.08836568,.00011913,53.1601,288.7202,88.7412,271.3716,0,U,52580,999,23038,.43721365E-4,.408E-5,0
STARLINK-3915,2022-051AX,2026-07-13T12:43:41.725056,15.08832256,.0001075,53.1586,273.9454,70.3916,289.7191,0,U,52581,999,23058,.43261023E-4,.401E-5,0
STARLINK-3895,2022-051AZ,2026-07-13T11:03:00.599040,15.08831027,.00008545,53.1590,274.2611,80.4020,279.7068,0,U,52583,999,23057,.46364779E-4,.45E-5,0
STARLINK-3922,2022-051BA,2026-07-13T12:48:59.558688,15.08834644,.00010526,53.1595,273.9276,68.6859,291.4245,0,U,52584,999,23058,.63341235E-4,.72E-5,0
STARLINK-3906,2022-051BB,2026-07-13T10:47:05.947296,15.08835635,.00012379,53.1590,274.2688,99.1481,260.9650,0,U,52585,999,23057,.2210282E-4,.64E-6,0
STARLINK-3910,2022-051BC,2026-07-13T12:33:05.781312,15.08829903,.00009526,53.1600,273.9796,94.3466,265.7635,0,U,52586,999,23058,.29770697E-4,.186E-5,0
STARLINK-3867,2022-051BD,2026-07-13T11:56:29.599584,15.31708236,.00010487,53.1599,271.1076,73.3459,286.7658,0,U,52587,999,23062,.40168606E-4,.882E-5,0
STARLINK-3917,2022-051BE,2026-07-13T12:17:11.733504,15.08833655,.00013138,53.1592,274.0306,86.5395,273.5747,0,U,52588,999,23058,.3652334E-5,-.23E-5,0
STARLINK-4019,2022-052A,2026-07-13T14:00:01.000224,15.20468998,.00016649,53.1597,77.8721,112.9752,141.3443,0,U,52598,999,584,.33259738E-2,.73958E-3,0
STARLINK-4024,2022-052B,2026-07-12T22:33:21.232512,15.31705900,.00009806,53.1605,73.1925,88.4471,271.6642,0,U,52599,999,23061,.23502922E-4,.365E-5,0
